IRIDIUM 921             
1 24873U 97034E   24282.57689769  .00224585  00000+0  35937-2 0  9996
2 24873  86.3767 231.4952 0008579 116.6610 243.5530 15.52318442492685
IRIDIUM 26              
1 24903U 97043A   24282.52245327  .00004314  00000+0  14590-2 0  9991
2 24903  86.4001 216.1922 0002335  89.8748 270.2717 14.36674245420609
IRIDIUM 22              
1 24907U 97043E   24282.52694685  .00003352  00000+0  11584-2 0  9991
2 24907  86.3999 219.5138 0002443  85.4223 274.7253 14.35538386420668
DUMMY MASS 1            
1 24925U 97048A   24282.43148121  .00004326  00000+0  48618-3 0  9996
2 24925  86.3315 251.6275 0005415 340.5725  19.5292 14.86496968467724
DUMMY MASS 2            
1 24926U 97048B   24282.48659081  .00002841  00000+0  32016-3 0  9999
2 24926  86.3315 253.1652 0006649 350.5107   9.5991 14.86246894467519
IRIDIUM 29              
1 24944U 97051A   24282.42468552  .00006036  00000+0  20718-2 0  9993
2 24944  86.3929 249.3961 0002454  83.6964 276.4513 14.35993596417135
IRIDIUM 33              
1 24946U 97051C   24282.42045870  .00003187  00000+0  11223-2 0  9994
2 24946  86.3841 248.6444 0008125 163.7070 196.4389 14.34566371416640
IRIDIUM 28              
1 24948U 97051E   24282.42306644  .00005478  00000+0  18441-2 0  9999
2 24948  86.3937 247.0543 0002387  99.5753 260.5714 14.36942846417686
